{"fetched_at":"2026-07-24T07:06:09.639Z","source":"https://celestrak.org/NORAD/elements/gp.php?GROUP=planet&FORMAT=JSON","constellation":"superdove","records":[{"OBJECT_NAME":"FLOCK 4Q-16","OBJECT_ID":"2023-174R","EPOCH":"2026-07-23T12:20:51.383040","CLASSIFICATION_TYPE":"U","MEAN_MOTION":15.50662486,"ECCENTRICITY":0.0006366,"INCLINATION":97.381,"RA_OF_ASC_NODE":293.5009,"ARG_OF_PERICENTER":51.8524,"MEAN_ANOMALY":308.3301,"EPHEMERIS_TYPE":0,"NORAD_CAT_ID":58271,"ELEMENT_SET_NO":999,"REV_AT_EPOCH":15120,"BSTAR":0.00042036,"MEAN_MOTION_DOT":0.00024075,"MEAN_MOTION_DDOT":0},{"OBJECT_NAME":"FLOCK 4Q-11","OBJECT_ID":"2023-174T","EPOCH":"2026-07-23T20:55:28.085376","CLASSIFICATION_TYPE":"U","MEAN_MOTION":15.51185995,"ECCENTRICITY":0.0005744,"INCLINATION":97.3847,"RA_OF_ASC_NODE":294.514,"ARG_OF_PERICENTER":44.6297,"MEAN_ANOMALY":315.5417,"EPHEMERIS_TYPE":0,"NORAD_CAT_ID":58273,"ELEMENT_SET_NO":999,"REV_AT_EPOCH":15127,"BSTAR":0.00037415,"MEAN_MOTION_DOT":0.00021811,"MEAN_MOTION_DDOT":0},{"OBJECT_NAME":"FLOCK 4Q-28","OBJECT_ID":"2023-174AA","EPOCH":"2026-07-23T12:08:45.447648","CLASSIFICATION_TYPE":"U","MEAN_MOTION":15.57163218,"ECCENTRICITY":0.0004004,"INCLINATION":97.3874,"RA_OF_ASC_NODE":296.953,"ARG_OF_PERICENTER":35.4973,"MEAN_ANOMALY":324.6548,"EPHEMERIS_TYPE":0,"NORAD_CAT_ID":58280,"ELEMENT_SET_NO":999,"REV_AT_EPOCH":15139,"BSTAR":0.00045753,"MEAN_MOTION_DOT":0.00033208,"MEAN_MOTION_DDOT":0},{"OBJECT_NAME":"FLOCK 4Q-27","OBJECT_ID":"2023-174AC","EPOCH":"2026-07-23T16:47:20.116032","CLASSIFICATION_TYPE":"U","MEAN_MOTION":15.57379701,"ECCENTRICITY":0.0003153,"INCLINATION":97.3803,"RA_OF_ASC_NODE":296.554,"ARG_OF_PERICENTER":41.2848,"MEAN_ANOMALY":318.8645,"EPHEMERIS_TYPE":0,"NORAD_CAT_ID":58282,"ELEMENT_SET_NO":999,"REV_AT_EPOCH":15143,"BSTAR":0.00039206,"MEAN_MOTION_DOT":0.00028652,"MEAN_MOTION_DDOT":0},{"OBJECT_NAME":"FLOCK 4Q-7","OBJECT_ID":"2023-174BQ","EPOCH":"2026-07-23T17:10:13.198656","CLASSIFICATION_TYPE":"U","MEAN_MOTION":15.57820445,"ECCENTRICITY":0.0003955,"INCLINATION":97.3901,"RA_OF_ASC_NODE":297.5075,"ARG_OF_PERICENTER":6.7942,"MEAN_ANOMALY":353.3367,"EPHEMERIS_TYPE":0,"NORAD_CAT_ID":58318,"ELEMENT_SET_NO":999,"REV_AT_EPOCH":15143,"BSTAR":0.00045869,"MEAN_MOTION_DOT":0.00034122,"MEAN_MOTION_DDOT":0},{"OBJECT_NAME":"FLOCK 4Q-2","OBJECT_ID":"2023-174BS","EPOCH":"2026-07-23T20:33:55.302048","CLASSIFICATION_TYPE":"U","MEAN_MOTION":15.51157397,"ECCENTRICITY":0.00039,"INCLINATION":97.3838,"RA_OF_ASC_NODE":294.2086,"ARG_OF_PERICENTER":20.6275,"MEAN_ANOMALY":339.5134,"EPHEMERIS_TYPE":0,"NORAD_CAT_ID":58320,"ELEMENT_SET_NO":999,"REV_AT_EPOCH":15128,"BSTAR":0.00045574,"MEAN_MOTION_DOT":0.00026567,"MEAN_MOTION_DDOT":0},{"OBJECT_NAME":"FLOCK 4Q-9","OBJECT_ID":"2023-174BU","EPOCH":"2026-07-23T20:53:38.790240","CLASSIFICATION_TYPE":"U","MEAN_MOTION":15.51719592,"ECCENTRICITY":0.0004768,"INCLINATION":97.3845,"RA_OF_ASC_NODE":294.3431,"ARG_OF_PERICENTER":19.2136,"MEAN_ANOMALY":340.9295,"EPHEMERIS_TYPE":0,"NORAD_CAT_ID":58322,"ELEMENT_SET_NO":999,"REV_AT_EPOCH":15127,"BSTAR":0.00039096,"MEAN_MOTION_DOT":0.00023232,"MEAN_MOTION_DDOT":0},{"OBJECT_NAME":"FLOCK 4Q-4","OBJECT_ID":"2023-174BZ","EPOCH":"2026-07-23T16:47:30.527232","CLASSIFICATION_TYPE":"U","MEAN_MOTION":15.501711,"ECCENTRICITY":0.0005003,"INCLINATION":97.3824,"RA_OF_ASC_NODE":293.2595,"ARG_OF_PERICENTER":49.8831,"MEAN_ANOMALY":310.2859,"EPHEMERIS_TYPE":0,"NORAD_CAT_ID":58327,"ELEMENT_SET_NO":999,"REV_AT_EPOCH":15121,"BSTAR":0.0003936,"MEAN_MOTION_DOT":0.00022136,"MEAN_MOTION_DDOT":0},{"OBJECT_NAME":"FLOCK 4Q-13","OBJECT_ID":"2023-174CA","EPOCH":"2026-07-23T20:40:28.257024","CLASSIFICATION_TYPE":"U","MEAN_MOTION":15.53198767,"ECCENTRICITY":0.000505,"INCLINATION":97.3998,"RA_OF_ASC_NODE":296.7912,"ARG_OF_PERICENTER":26.8917,"MEAN_ANOMALY":333.2596,"EPHEMERIS_TYPE":0,"NORAD_CAT_ID":58328,"ELEMENT_SET_NO":999,"REV_AT_EPOCH":15136,"BSTAR":0.00034856,"MEAN_MOTION_DOT":0.00021829,"MEAN_MOTION_DDOT":0},{"OBJECT_NAME":"FLOCK 4BE-18","OBJECT_ID":"2024-149N","EPOCH":"2026-07-23T16:05:29.968800","CLASSIFICATION_TYPE":"U","MEAN_MOTION":15.42939225,"ECCENTRICITY":0.0005393,"INCLINATION":97.3718,"RA_OF_ASC_NODE":288.8084,"ARG_OF_PERICENTER":121.7969,"MEAN_ANOMALY":238.3805,"EPHEMERIS_TYPE":0,"NORAD_CAT_ID":60480,"ELEMENT_SET_NO":999,"REV_AT_EPOCH":10793,"BSTAR":0.00041923,"MEAN_MOTION_DOT":0.00018379,"MEAN_MOTION_DDOT":0},{"OBJECT_NAME":"FLOCK 4BE-7","OBJECT_ID":"2024-149P","EPOCH":"2026-07-23T04:35:10.310784","CLASSIFICATION_TYPE":"U","MEAN_MOTION":15.41756969,"ECCENTRICITY":0.0004464,"INCLINATION":97.3746,"RA_OF_ASC_NODE":287.602,"ARG_OF_PERICENTER":129.4646,"MEAN_ANOMALY":230.6996,"EPHEMERIS_TYPE":0,"NORAD_CAT_ID":60481,"ELEMENT_SET_NO":999,"REV_AT_EPOCH":10779,"BSTAR":0.00063799,"MEAN_MOTION_DOT":0.00026956,"MEAN_MOTION_DDOT":0},{"OBJECT_NAME":"FLOCK 4BE-36","OBJECT_ID":"2024-149U","EPOCH":"2026-07-23T04:02:55.603104","CLASSIFICATION_TYPE":"U","MEAN_MOTION":15.43742236,"ECCENTRICITY":0.0005177,"INCLINATION":97.3733,"RA_OF_ASC_NODE":289.0528,"ARG_OF_PERICENTER":131.0142,"MEAN_ANOMALY":229.1555,"EPHEMERIS_TYPE":0,"NORAD_CAT_ID":60486,"ELEMENT_SET_NO":999,"REV_AT_EPOCH":10790,"BSTAR":0.00039729,"MEAN_MOTION_DOT":0.00017889,"MEAN_MOTION_DDOT":0},{"OBJECT_NAME":"FLOCK 4BE-25","OBJECT_ID":"2024-149V","EPOCH":"2026-07-23T05:33:51.116832","CLASSIFICATION_TYPE":"U","MEAN_MOTION":15.39710741,"ECCENTRICITY":0.0003997,"INCLINATION":97.3785,"RA_OF_ASC_NODE":287.6475,"ARG_OF_PERICENTER":124.8086,"MEAN_ANOMALY":235.3536,"EPHEMERIS_TYPE":0,"NORAD_CAT_ID":60487,"ELEMENT_SET_NO":999,"REV_AT_EPOCH":10778,"BSTAR":0.00037195,"MEAN_MOTION_DOT":0.0001463,"MEAN_MOTION_DDOT":0},{"OBJECT_NAME":"FLOCK 4BE-31","OBJECT_ID":"2024-149W","EPOCH":"2026-07-23T16:22:11.572032","CLASSIFICATION_TYPE":"U","MEAN_MOTION":15.45427414,"ECCENTRICITY":0.0004078,"INCLINATION":97.3786,"RA_OF_ASC_NODE":290.5435,"ARG_OF_PERICENTER":129.4377,"MEAN_ANOMALY":230.7233,"EPHEMERIS_TYPE":0,"NORAD_CAT_ID":60488,"ELEMENT_SET_NO":999,"REV_AT_EPOCH":10801,"BSTAR":0.00045112,"MEAN_MOTION_DOT":0.00021526,"MEAN_MOTION_DDOT":0},{"OBJECT_NAME":"FLOCK 4BE-20","OBJECT_ID":"2024-149X","EPOCH":"2026-07-23T16:01:51.986784","CLASSIFICATION_TYPE":"U","MEAN_MOTION":15.38972766,"ECCENTRICITY":0.0005483,"INCLINATION":97.368,"RA_OF_ASC_NODE":286.8738,"ARG_OF_PERICENTER":129.9801,"MEAN_ANOMALY":230.1926,"EPHEMERIS_TYPE":0,"NORAD_CAT_ID":60489,"ELEMENT_SET_NO":999,"REV_AT_EPOCH":10782,"BSTAR":0.0002926,"MEAN_MOTION_DOT":0.00011214,"MEAN_MOTION_DDOT":0},{"OBJECT_NAME":"FLOCK 4BE-23","OBJECT_ID":"2024-149Y","EPOCH":"2026-07-23T05:06:44.807040","CLASSIFICATION_TYPE":"U","MEAN_MOTION":15.3852706,"ECCENTRICITY":0.0005117,"INCLINATION":97.3764,"RA_OF_ASC_NODE":286.811,"ARG_OF_PERICENTER":135.0634,"MEAN_ANOMALY":225.1027,"EPHEMERIS_TYPE":0,"NORAD_CAT_ID":60490,"ELEMENT_SET_NO":999,"REV_AT_EPOCH":10773,"BSTAR":0.00037875,"MEAN_MOTION_DOT":0.00014334,"MEAN_MOTION_DDOT":0}]}
