FLOCK 4Q-16             
1 58271U 23174R   26204.51448360  .00024075  00000+0  42036-3 0  9990
2 58271  97.3810 293.5009 0006366  51.8524 308.3301 15.50662486151207
FLOCK 4Q-11             
1 58273U 23174T   26204.87185284  .00021811  00000+0  37415-3 0  9994
2 58273  97.3847 294.5140 0005744  44.6297 315.5417 15.51185995151273
FLOCK 4Q-28             
1 58280U 23174AA  26204.50608157  .00033208  00000+0  45753-3 0  9998
2 58280  97.3874 296.9530 0004004  35.4973 324.6548 15.57163218151396
FLOCK 4Q-27             
1 58282U 23174AC  26204.69953838  .00028652  00000+0  39206-3 0  9992
2 58282  97.3803 296.5540 0003153  41.2848 318.8645 15.57379701151431
FLOCK 4Q-7              
1 58318U 23174BQ  26204.71543054  .00034122  00000+0  45869-3 0  9991
2 58318  97.3901 297.5075 0003955   6.7942 353.3367 15.57820445151436
FLOCK 4Q-2              
1 58320U 23174BS  26204.85689007  .00026567  00000+0  45574-3 0  9995
2 58320  97.3838 294.2086 0003900  20.6275 339.5134 15.51157397151282
FLOCK 4Q-9              
1 58322U 23174BU  26204.87058785  .00023232  00000+0  39096-3 0  9990
2 58322  97.3845 294.3431 0004768  19.2136 340.9295 15.51719592151274
FLOCK 4Q-4              
1 58327U 23174BZ  26204.69965888  .00022136  00000+0  39360-3 0  9992
2 58327  97.3824 293.2595 0005003  49.8831 310.2859 15.50171100151215
FLOCK 4Q-13             
1 58328U 23174CA  26204.86143816  .00021829  00000+0  34856-3 0  9994
2 58328  97.3998 296.7912 0005050  26.8917 333.2596 15.53198767151361
FLOCK 4BE-18            
1 60480U 24149N   26204.67048575  .00018379  00000+0  41923-3 0  9993
2 60480  97.3718 288.8084 0005393 121.7969 238.3805 15.42939225107939
FLOCK 4BE-7             
1 60481U 24149P   26204.19109156  .00026956  00000+0  63799-3 0  9999
2 60481  97.3746 287.6020 0004464 129.4646 230.6996 15.41756969107794
FLOCK 4BE-36            
1 60486U 24149U   26204.16869911  .00017889  00000+0  39729-3 0  9994
2 60486  97.3733 289.0528 0005177 131.0142 229.1555 15.43742236107907
FLOCK 4BE-25            
1 60487U 24149V   26204.23184163  .00014630  00000+0  37195-3 0  9998
2 60487  97.3785 287.6475 0003997 124.8086 235.3536 15.39710741107780
FLOCK 4BE-31            
1 60488U 24149W   26204.68207838  .00021526  00000+0  45112-3 0  9993
2 60488  97.3786 290.5435 0004078 129.4377 230.7233 15.45427414108015
FLOCK 4BE-20            
1 60489U 24149X   26204.66796281  .00011214  00000+0  29260-3 0  9996
2 60489  97.3680 286.8738 0005483 129.9801 230.1926 15.38972766107829
FLOCK 4BE-23            
1 60490U 24149Y   26204.21301860  .00014334  00000+0  37875-3 0  9991
2 60490  97.3764 286.8110 0005117 135.0634 225.1027 15.38527060107733
